OBJECT_NAME,OBJECT_ID,EPOCH,MEAN_MOTION,ECCENTRICITY,INCLINATION,RA_OF_ASC_NODE,ARG_OF_PERICENTER,MEAN_ANOMALY,EPHEMERIS_TYPE,CLASSIFICATION_TYPE,NORAD_CAT_ID,ELEMENT_SET_NO,REV_AT_EPOCH,BSTAR,MEAN_MOTION_DOT,MEAN_MOTION_DDOT
STARLINK-34897,2025-176Q,2026-07-14T13:10:37.825824,15.34393161,.00009977,53.1590,281.3231,127.1266,232.9828,0,U,65212,999,5257,.23797774E-3,.7671E-4,0
STARLINK-34907,2025-176R,2026-07-15T05:24:57.271968,15.34394866,.0000899,53.1590,278.4354,78.5113,281.5990,0,U,65213,999,5267,.53454E-3,.17724E-3,0
STARLINK-34511,2025-176S,2026-07-15T05:15:51.916896,15.34390318,.0000866,53.1583,278.4005,71.6037,288.5060,0,U,65214,999,5261,.32653E-3,.10669E-3,0
STARLINK-33913,2025-176T,2026-07-15T05:01:31.670976,15.34391976,.0001453,53.1580,280.4649,66.2558,293.8596,0,U,65215,999,5264,.42641E-3,.14054E-3,0
STARLINK-34302,2025-176U,2026-07-14T13:16:41.647584,15.34388329,.0001058,53.1607,281.3466,116.2347,243.8764,0,U,65216,999,5257,.2362E-3,.761E-4,0
STARLINK-34871,2025-176V,2026-07-14T12:43:21.597312,15.34391225,.00007903,53.1589,281.2068,101.5808,258.5283,0,U,65217,999,5257,.13711309E-3,.4258E-4,0
STARLINK-34833,2025-176W,2026-07-14T12:01:04.577952,15.34387756,.00008332,53.1603,281.7303,72.1823,287.9270,0,U,65218,999,5256,.24705424E-3,.7977E-4,0
STARLINK-34960,2025-176X,2026-07-14T12:28:21.105408,15.34387203,.00013371,53.1583,281.8471,81.7930,278.3224,0,U,65219,999,5256,.5622127E-3,.18659E-3,0
STARLINK-34603,2025-176Y,2026-07-14T12:49:25.346496,15.34389729,.00010219,53.1583,281.2328,103.6120,256.4997,0,U,65220,999,5257,.81799489E-4,.2388E-4,0
STARLINK-34974,2025-176Z,2026-07-14T13:04:34.240800,15.34390733,.00007917,53.1588,281.2979,126.1307,233.9769,0,U,65221,999,5257,.14082384E-3,.4383E-4,0
STARLINK-34999,2025-176AA,2026-07-15T02:29:28.975776,15.34389509,.0001265,53.1588,279.0964,100.4810,259.6335,0,U,65222,999,5265,.40026E-3,.13166E-3,0
STARLINK-34996,2025-176AB,2026-07-14T12:22:16.992480,15.34382935,.00001509,53.1584,281.8178,149.4876,210.6136,0,U,65223,999,5256,.31266816E-3,.10197E-3,0
STARLINK-34975,2025-176AC,2026-07-15T05:03:46.480032,15.34375016,.0001053,53.1592,278.3413,82.5662,277.5461,0,U,65224,999,5267,.81622E-3,.27279E-3,0
STARLINK-34257,2025-176AD,2026-07-14T13:31:50.848608,15.34385047,.000114,53.1599,281.4084,64.9543,295.1578,0,U,65225,999,5251,.21179E-3,.6783E-4,0
STARLINK-34842,2025-179A,2026-07-15T04:00:03.000096,15.10338506,.000114,97.2824,236.5989,120.8650,262.4907,0,U,65235,999,548,-.66695E-3,-.1097E-3,0
STARLINK-34938,2025-179B,2026-07-15T04:00:03.000096,15.10548113,.0002187,97.2843,236.5338,93.0776,105.4490,0,U,65236,999,572,-.32755E-3,-.5453E-4,0
STARLINK-34958,2025-179C,2026-07-15T04:00:03.000096,15.10564147,.0002088,97.2825,236.5144,96.8908,56.8717,0,U,65237,999,573,-.15487E-2,-.25503E-3,0
STARLINK-34818,2025-179D,2026-07-15T02:43:00.085152,15.05868184,.0003656,97.2845,236.5266,123.7818,236.3759,0,U,65238,999,5072,.5336E-2,.78246E-3,0
STARLINK-34964,2025-179E,2026-07-15T04:00:03.000096,15.18689818,.0001498,97.2843,236.5332,79.1639,123.9866,0,U,65239,999,571,.11789E+0,.2705089E-1,0
STARLINK-34953,2025-179F,2026-07-15T04:00:03.000096,15.12956928,.0004496,97.2774,236.5084,105.1512,91.6720,0,U,65240,999,578,.18883E+0,.375675E-1,0
STARLINK-34969,2025-179G,2026-07-15T04:00:03.000096,15.10540496,.0001179,97.2843,236.5383,21.9788,218.7946,0,U,65241,999,577,-.13828E-2,-.22771E-3,0
STARLINK-34963,2025-179H,2026-07-15T04:00:03.000096,15.10560378,.0001226,97.2834,236.6221,89.9719,307.4948,0,U,65242,999,572,-.19001E-2,-.31248E-3,0
STARLINK-34982,2025-179J,2026-07-15T04:00:03.000096,15.11218301,.0000892,97.2840,236.5171,87.1278,71.6060,0,U,65243,999,578,.14925E+0,.2788195E-1,0
STARLINK-34990,2025-179K,2026-07-15T04:00:03.000096,15.10570030,.000233,97.2834,236.5768,90.2165,204.9136,0,U,65244,999,577,-.17572E-2,-.2892E-3,0
STARLINK-34977,2025-179L,2026-07-15T04:00:03.000096,15.10554027,.0001739,97.2838,236.5456,75.6314,149.7180,0,U,65245,999,573,-.16341E-2,-.26894E-3,0
STARLINK-34959,2025-179M,2026-07-15T04:00:03.000096,15.19056031,.0000479,97.2802,236.5302,103.2112,74.8156,0,U,65246,999,573,.19532E+0,.4642541E-1,0
STARLINK-34923,2025-179N,2026-07-13T17:42:57.612384,15.11163746,.00012004,97.2837,235.1737,65.2391,294.8964,0,U,65247,999,5083,.13008553E-1,.224945E-2,0
STARLINK-34962,2025-179P,2026-07-14T09:30:11.174688,15.05873796,.00029034,97.2823,235.8138,93.2089,266.9471,0,U,65248,999,5089,.42609527E-2,.62338E-3,0
STARLINK-34925,2025-179Q,2026-07-15T02:35:08.569248,15.05640756,.000203,97.2822,236.5367,106.6071,253.5380,0,U,65249,999,5099,-.16345E-3,-.2413E-4,0
STARLINK-34973,2025-179R,2026-07-15T04:00:03.000096,15.10438463,.0002227,97.2883,236.5962,92.5865,277.7143,0,U,65250,999,571,-.84743E-3,-.13956E-3,0
