STARLINK-34897          
1 65212U 25176Q   26195.54904891  .00007671  00000+0  23798-3 0  9992
2 65212  53.1590 281.3231 0000997 127.1266 232.9828 15.34393161 52570
STARLINK-34907          
1 65213U 25176R   26196.22566287  .00017724  00000+0  53454-3 0  9994
2 65213  53.1590 278.4354 0000899  78.5113 281.5990 15.34394866 52679
STARLINK-34511          
1 65214U 25176S   26196.21935089  .00010669  00000+0  32653-3 0  9993
2 65214  53.1583 278.4005 0000866  71.6037 288.5060 15.34390318 52615
STARLINK-33913          
1 65215U 25176T   26196.20939434  .00014054  00000+0  42641-3 0  9991
2 65215  53.1580 280.4649 0001453  66.2558 293.8596 15.34391976 52648
STARLINK-34302          
1 65216U 25176U   26195.55325981  .00007610  00000+0  23620-3 0  9991
2 65216  53.1607 281.3466 0001058 116.2347 243.8764 15.34388329 52571
STARLINK-34871          
1 65217U 25176V   26195.53011108  .00004258  00000+0  13711-3 0  9998
2 65217  53.1589 281.2068 0000790 101.5808 258.5283 15.34391225 52577
STARLINK-34833          
1 65218U 25176W   26195.50074743  .00007977  00000+0  24705-3 0  9996
2 65218  53.1603 281.7303 0000833  72.1823 287.9270 15.34387756 52565
STARLINK-34960          
1 65219U 25176X   26195.51968872  .00018659  00000+0  56221-3 0  9990
2 65219  53.1583 281.8471 0001337  81.7930 278.3224 15.34387203 52565
STARLINK-34603          
1 65220U 25176Y   26195.53432114  .00002388  00000+0  81799-4 0  9990
2 65220  53.1583 281.2328 0001021 103.6120 256.4997 15.34389729 52577
STARLINK-34974          
1 65221U 25176Z   26195.54484075  .00004383  00000+0  14082-3 0  9992
2 65221  53.1588 281.2979 0000791 126.1307 233.9769 15.34390733 52579
STARLINK-34999          
1 65222U 25176AA  26196.10380759  .00013166  00000+0  40026-3 0  9996
2 65222  53.1588 279.0964 0001265 100.4810 259.6335 15.34389509 52652
STARLINK-34996          
1 65223U 25176AB  26195.51547445  .00010197  00000+0  31267-3 0  9996
2 65223  53.1584 281.8178 0000150 149.4876 210.6136 15.34382935 52566
STARLINK-34975          
1 65224U 25176AC  26196.21095463  .00027279  00000+0  81622-3 0  9992
2 65224  53.1592 278.3413 0001053  82.5662 277.5461 15.34375016 52679
STARLINK-34257          
1 65225U 25176AD  26195.56378297  .00006783  00000+0  21179-3 0  9997
2 65225  53.1599 281.4084 0001140  64.9543 295.1578 15.34385047 52518
STARLINK-34842          
1 65235U 25179A   26196.16670139 -.00010970  00000+0 -66695-3 0  9995
2 65235  97.2824 236.5989 0001140 120.8650 262.4907 15.10338506  5484
STARLINK-34938          
1 65236U 25179B   26196.16670139 -.00005453  00000+0 -32755-3 0  9996
2 65236  97.2843 236.5338 0002187  93.0776 105.4490 15.10548113  5723
STARLINK-34958          
1 65237U 25179C   26196.16670139 -.00025503  00000+0 -15487-2 0  9997
2 65237  97.2825 236.5144 0002088  96.8908  56.8717 15.10564147  5734
STARLINK-34818          
1 65238U 25179D   26196.11319543  .00078246  00000+0  53360-2 0  9994
2 65238  97.2845 236.5266 0003656 123.7818 236.3759 15.05868184 50726
STARLINK-34964          
1 65239U 25179E   26196.16670139  .02705089  00000+0  11789+0 0  9991
2 65239  97.2843 236.5332 0001498  79.1639 123.9866 15.18689818  5714
STARLINK-34953          
1 65240U 25179F   26196.16670139  .03756750  00000+0  18883+0 0  9997
2 65240  97.2774 236.5084 0004496 105.1512  91.6720 15.12956928  5784
STARLINK-34969          
1 65241U 25179G   26196.16670139 -.00022771  00000+0 -13828-2 0  9993
2 65241  97.2843 236.5383 0001179  21.9788 218.7946 15.10540496  5777
STARLINK-34963          
1 65242U 25179H   26196.16670139 -.00031248  00000+0 -19001-2 0  9992
2 65242  97.2834 236.6221 0001226  89.9719 307.4948 15.10560378  5725
STARLINK-34982          
1 65243U 25179J   26196.16670139  .02788195  00000+0  14925+0 0  9990
2 65243  97.2840 236.5171 0000892  87.1278  71.6060 15.11218301  5782
STARLINK-34990          
1 65244U 25179K   26196.16670139 -.00028920  00000+0 -17572-2 0  9998
2 65244  97.2834 236.5768 0002330  90.2165 204.9136 15.10570030  5770
STARLINK-34977          
1 65245U 25179L   26196.16670139 -.00026894  00000+0 -16341-2 0  9990
2 65245  97.2838 236.5456 0001739  75.6314 149.7180 15.10554027  5733
STARLINK-34959          
1 65246U 25179M   26196.16670139  .04642541  00000+0  19532+0 0  9998
2 65246  97.2802 236.5302 0000479 103.2112  74.8156 15.19056031  5731
STARLINK-34923          
1 65247U 25179N   26194.73816681  .00224945  00000+0  13009-1 0  9999
2 65247  97.2837 235.1737 0001200  65.2391 294.8964 15.11163746 50832
STARLINK-34962          
1 65248U 25179P   26195.39596267  .00062338  00000+0  42610-2 0  9995
2 65248  97.2823 235.8138 0002903  93.2089 266.9471 15.05873796 50891
STARLINK-34925          
1 65249U 25179Q   26196.10773807 -.00002413  00000+0 -16345-3 0  9990
2 65249  97.2822 236.5367 0002030 106.6071 253.5380 15.05640756 50994
STARLINK-34973          
1 65250U 25179R   26196.16670139 -.00013956  00000+0 -84743-3 0  9993
2 65250  97.2883 236.5962 0002227  92.5865 277.7143 15.10438463  5717
